{
  "type": "FeatureCollection",
  "features": [
    {
      "type": "Feature",
      "properties": {
        "norad_id": 66336,
        "name": "STARLINK-35404",
        "group": "last-30-days",
        "lat": -42.27311905631662,
        "lon": -39.064394107550726,
        "alt_km": 416.68714269008433,
        "timestamp": "2025-12-03T13:52:08.344066+00:00",
        "meta_object_name": "STARLINK-35404",
        "meta_object_id": "2025-253T",
        "meta_epoch": "2025-12-02T21:12:42.149952",
        "meta_mean_motion": 15.50648575,
        "meta_eccentricity": 0.00014576,
        "meta_inclination": 43.0002,
        "meta_ra_of_asc_node": 42.3018,
        "meta_arg_of_pericenter": 287.4567,
        "meta_mean_anomaly": 72.6134,
        "meta_ephemeris_type": 0,
        "meta_classification_type": "U",
        "meta_norad_cat_id": 66336,
        "meta_element_set_no": 999,
        "meta_rev_at_epoch": 540,
        "meta_bstar": 0.0022090908,
        "meta_mean_motion_dot": 0.00131785,
        "meta_mean_motion_ddot": 0,
        "tle_line1": "1 66336U 25253T   25336.88382118  .00131785  00000+0  22091-2 0  9999",
        "tle_line2": "2 66336  43.0002  42.3018 0001457 287.4567  72.6134 15.50648575  5407"
      },
      "geometry": {
        "type": "Point",
        "coordinates": [
          -39.064394107550726,
          -42.27311905631662
        ]
      }
    },
    {
      "type": "Feature",
      "properties": {
        "norad_id": 66337,
        "name": "STARLINK-34783",
        "group": "last-30-days",
        "lat": 17.70344837799565,
        "lon": -161.4827415873032,
        "alt_km": 441.5476269933288,
        "timestamp": "2025-12-03T13:52:08.344079+00:00",
        "meta_object_name": "STARLINK-34783",
        "meta_object_id": "2025-253U",
        "meta_epoch": "2025-12-03T08:00:01.999872",
        "meta_mean_motion": 15.40671797,
        "meta_eccentricity": 9.741e-05,
        "meta_inclination": 43.0006,
        "meta_ra_of_asc_node": 39.9585,
        "meta_arg_of_pericenter": 265.0003,
        "meta_mean_anomaly": 330.6294,
        "meta_ephemeris_type": 0,
        "meta_classification_type": "U",
        "meta_norad_cat_id": 66337,
        "meta_element_set_no": 999,
        "meta_rev_at_epoch": 546,
        "meta_bstar": 0.00068545264,
        "meta_mean_motion_dot": 0.00028409,
        "meta_mean_motion_ddot": 0,
        "tle_line1": "1 66337U 25253U   25337.33335648  .00028409  00000+0  68545-3 0  9990",
        "tle_line2": "2 66337  43.0006  39.9585 0000974 265.0003 330.6294 15.40671797  5464"
      },
      "geometry": {
        "type": "Point",
        "coordinates": [
          -161.4827415873032,
          17.70344837799565
        ]
      }
    },
    {
      "type": "Feature",
      "properties": {
        "norad_id": 66338,
        "name": "STARLINK-35477",
        "group": "last-30-days",
        "lat": 37.733564611183034,
        "lon": 162.4986593701532,
        "alt_km": 438.48193685629394,
        "timestamp": "2025-12-03T13:52:08.344090+00:00",
        "meta_object_name": "STARLINK-35477",
        "meta_object_id": "2025-253V",
        "meta_epoch": "2025-12-03T00:00:02.000160",
        "meta_mean_motion": 15.40654364,
        "meta_eccentricity": 9.994e-05,
        "meta_inclination": 43.0008,
        "meta_ra_of_asc_node": 41.9681,
        "meta_arg_of_pericenter": 249.6086,
        "meta_mean_anomaly": 257.669,
        "meta_ephemeris_type": 0,
        "meta_classification_type": "U",
        "meta_norad_cat_id": 66338,
        "meta_element_set_no": 999,
        "meta_rev_at_epoch": 546,
        "meta_bstar": 0.001271885,
        "meta_mean_motion_dot": 0.00053116,
        "meta_mean_motion_ddot": 0,
        "tle_line1": "1 66338U 25253V   25337.00002315  .00053116  00000+0  12719-2 0  9991",
        "tle_line2": "2 66338  43.0008  41.9681 0000999 249.6086 257.6690 15.40654364  5462"
      },
      "geometry": {
        "type": "Point",
        "coordinates": [
          162.4986593701532,
          37.733564611183034
        ]
      }
    },
    {
      "type": "Feature",
      "properties": {
        "norad_id": 66339,
        "name": "STARLINK-35443",
        "group": "last-30-days",
        "lat": -42.735590773078364,
        "lon": -59.20330841080049,
        "alt_km": 442.0008342541705,
        "timestamp": "2025-12-03T13:52:08.344101+00:00",
        "meta_object_name": "STARLINK-35443",
        "meta_object_id": "2025-253W",
        "meta_epoch": "2025-12-03T08:00:01.999872",
        "meta_mean_motion": 15.43298052,
        "meta_eccentricity": 0.00012231,
        "meta_inclination": 43.0002,
        "meta_ra_of_asc_node": 39.6931,
        "meta_arg_of_pericenter": 260.9532,
        "meta_mean_anomaly": 83.8814,
        "meta_ephemeris_type": 0,
        "meta_classification_type": "U",
        "meta_norad_cat_id": 66339,
        "meta_element_set_no": 999,
        "meta_rev_at_epoch": 546,
        "meta_bstar": -0.047633404,
        "meta_mean_motion_dot": -0.01941426,
        "meta_mean_motion_ddot": 0,
        "tle_line1": "1 66339U 25253W   25337.33335648 -.01941426  00000+0 -47633-1 0  9991",
        "tle_line2": "2 66339  43.0002  39.6931 0001223 260.9532  83.8814 15.43298052  5460"
      },
      "geometry": {
        "type": "Point",
        "coordinates": [
          -59.20330841080049,
          -42.735590773078364
        ]
      }
    },
    {
      "type": "Feature",
      "properties": {
        "norad_id": 66340,
        "name": "STARLINK-35218",
        "group": "last-30-days",
        "lat": -41.80033537039732,
        "lon": -35.40604765123286,
        "alt_km": 416.00111917903905,
        "timestamp": "2025-12-03T13:52:08.344112+00:00",
        "meta_object_name": "STARLINK-35218",
        "meta_object_id": "2025-253X",
        "meta_epoch": "2025-12-02T05:44:37.704192",
        "meta_mean_motion": 15.50658934,
        "meta_eccentricity": 0.0001723,
        "meta_inclination": 43.0002,
        "meta_ra_of_asc_node": 46.0659,
        "meta_arg_of_pericenter": 259.1035,
        "meta_mean_anomaly": 100.9632,
        "meta_ephemeris_type": 0,
        "meta_classification_type": "U",
        "meta_norad_cat_id": 66340,
        "meta_element_set_no": 999,
        "meta_rev_at_epoch": 530,
        "meta_bstar": 0.0021881,
        "meta_mean_motion_dot": 0.00130561,
        "meta_mean_motion_ddot": 0,
        "tle_line1": "1 66340U 25253X   25336.23932528  .00130561  00000+0  21881-2 0  9996",
        "tle_line2": "2 66340  43.0002  46.0659 0001723 259.1035 100.9632 15.50658934  5303"
      },
      "geometry": {
        "type": "Point",
        "coordinates": [
          -35.40604765123286,
          -41.80033537039732
        ]
      }
    },
    {
      "type": "Feature",
      "properties": {
        "norad_id": 66341,
        "name": "STARLINK-35522",
        "group": "last-30-days",
        "lat": -42.868748645437655,
        "lon": -46.68705736928796,
        "alt_km": 416.61925137467006,
        "timestamp": "2025-12-03T13:52:08.344123+00:00",
        "meta_object_name": "STARLINK-35522",
        "meta_object_id": "2025-253Y",
        "meta_epoch": "2025-12-02T21:14:11.077152",
        "meta_mean_motion": 15.50667334,
        "meta_eccentricity": 0.00014747,
        "meta_inclination": 43.0006,
        "meta_ra_of_asc_node": 42.3125,
        "meta_arg_of_pericenter": 295.6812,
        "meta_mean_anomaly": 64.3896,
        "meta_ephemeris_type": 0,
        "meta_classification_type": "U",
        "meta_norad_cat_id": 66341,
        "meta_element_set_no": 999,
        "meta_rev_at_epoch": 540,
        "meta_bstar": 0.0026477102,
        "meta_mean_motion_dot": 0.00158674,
        "meta_mean_motion_ddot": 0,
        "tle_line1": "1 66341U 25253Y   25336.88485043  .00158674  00000+0  26477-2 0  9994",
        "tle_line2": "2 66341  43.0006  42.3125 0001474 295.6812  64.3896 15.50667334  5406"
      },
      "geometry": {
        "type": "Point",
        "coordinates": [
          -46.68705736928796,
          -42.868748645437655
        ]
      }
    },
    {
      "type": "Feature",
      "properties": {
        "norad_id": 66342,
        "name": "STARLINK-35535",
        "group": "last-30-days",
        "lat": -23.45932789142947,
        "lon": -113.84811254017367,
        "alt_km": 445.7538617448681,
        "timestamp": "2025-12-03T13:52:08.344133+00:00",
        "meta_object_name": "STARLINK-35535",
        "meta_object_id": "2025-253Z",
        "meta_epoch": "2025-12-03T08:00:01.999872",
        "meta_mean_motion": 15.40664523,
        "meta_eccentricity": 0.00012419,
        "meta_inclination": 43.0004,
        "meta_ra_of_asc_node": 39.8058,
        "meta_arg_of_pericenter": 259.207,
        "meta_mean_anomaly": 38.6497,
        "meta_ephemeris_type": 0,
        "meta_classification_type": "U",
        "meta_norad_cat_id": 66342,
        "meta_element_set_no": 999,
        "meta_rev_at_epoch": 541,
        "meta_bstar": 0.00059935632,
        "meta_mean_motion_dot": 0.00024785,
        "meta_mean_motion_ddot": 0,
        "tle_line1": "1 66342U 25253Z   25337.33335648  .00024785  00000+0  59936-3 0  9993",
        "tle_line2": "2 66342  43.0004  39.8058 0001241 259.2070  38.6497 15.40664523  5413"
      },
      "geometry": {
        "type": "Point",
        "coordinates": [
          -113.84811254017367,
          -23.45932789142947
        ]
      }
    }
  ]
}